GLOBALSTAR M067         
1 32263U 07048A   24335.73332372 -.00000068  00000+0  21994-3 0  9994
2 32263  51.9727 256.6203 0000674 340.8014  30.9360 12.40661125784851
GLOBALSTAR M070         
1 32264U 07048B   24335.89022968 -.00000060  00000+0  24561-3 0  9994
2 32264  51.9774  12.5916 0000386  82.6615  89.1978 12.62306752788628
GLOBALSTAR M066         
1 32265U 07048C   24335.92680939 -.00000014  00000+0  60834-3 0  9999
2 32265  51.9668 242.8247 0001202  44.6727  50.5092 12.42167360790749
GLOBALSTAR M068         
1 32266U 07048D   24335.87111477  .00000009  00000+0  62655-3 0  9996
2 32266  51.9861 186.7846 0002095  71.9130 301.6310 12.62810616792508
GLOBALSTAR M079         
1 37188U 10054A   24335.92451720 -.00000078  00000+0  14382-3 0  9990
2 37188  52.0061  23.3305 0000480 154.9943  15.8977 12.62267750651418
GLOBALSTAR M074         
1 37189U 10054B   24335.87148662 -.00000070  00000+0  18993-3 0  9997
2 37189  52.0040  22.8427 0000244  90.5172  80.7586 12.62259697652017
GLOBALSTAR M076         
1 37190U 10054C   24335.89833088 -.00000071  00000+0  18109-3 0  9994
2 37190  52.0052  22.9171 0000153 186.0205 345.3343 12.62274092651731
GLOBALSTAR M077         
1 37191U 10054D   24335.80612211 -.00000087  00000+0  90863-4 0  9994
2 37191  52.0090 339.9979 0000276  72.2505  99.8206 12.62267636652091
